{
  "type": "FeatureCollection",
  "features": [
    {
      "type": "Feature",
      "properties": {
        "norad_id": 36699,
        "name": "FENGYUN 1C DEB",
        "group": "fengyun-1c-debris",
        "lat": -14.423133476553483,
        "lon": 172.29041350206217,
        "alt_km": 830.994899531267,
        "timestamp": "2025-12-26T08:37:54.868807+00:00",
        "meta_object_name": "FENGYUN 1C DEB",
        "meta_object_id": "1999-025DZV",
        "meta_epoch": "2025-12-23T05:32:53.455200",
        "meta_mean_motion": 14.24305286,
        "meta_eccentricity": 0.00948854,
        "meta_inclination": 98.5593,
        "meta_ra_of_asc_node": 351.4625,
        "meta_arg_of_pericenter": 99.8572,
        "meta_mean_anomaly": 261.3335,
        "meta_ephemeris_type": 0,
        "meta_classification_type": "U",
        "meta_norad_cat_id": 36699,
        "meta_element_set_no": 999,
        "meta_rev_at_epoch": 73476,
        "meta_bstar": 0.00021503407,
        "meta_mean_motion_dot": 4.78e-06,
        "meta_mean_motion_ddot": 0,
        "tle_line1": "1 36699U 99025DZV 25357.23117425  .00000478  00000+0  21503-3 0  9997",
        "tle_line2": "2 36699  98.5593 351.4625 0094885  99.8572 261.3335 14.24305286734769"
      },
      "geometry": {
        "type": "Point",
        "coordinates": [
          172.29041350206217,
          -14.423133476553483
        ]
      }
    },
    {
      "type": "Feature",
      "properties": {
        "norad_id": 36701,
        "name": "FENGYUN 1C DEB",
        "group": "fengyun-1c-debris",
        "lat": 74.06274444394462,
        "lon": -93.31881840206036,
        "alt_km": 1135.5703817882268,
        "timestamp": "2025-12-26T08:37:54.868817+00:00",
        "meta_object_name": "FENGYUN 1C DEB",
        "meta_object_id": "1999-025DZX",
        "meta_epoch": "2025-12-25T14:42:49.417344",
        "meta_mean_motion": 13.71379325,
        "meta_eccentricity": 0.0258174,
        "meta_inclination": 102.7471,
        "meta_ra_of_asc_node": 318.1305,
        "meta_arg_of_pericenter": 224.125,
        "meta_mean_anomaly": 133.9027,
        "meta_ephemeris_type": 0,
        "meta_classification_type": "U",
        "meta_norad_cat_id": 36701,
        "meta_element_set_no": 999,
        "meta_rev_at_epoch": 61315,
        "meta_bstar": 0.0017616,
        "meta_mean_motion_dot": 1.936e-05,
        "meta_mean_motion_ddot": 0,
        "tle_line1": "1 36701U 99025DZX 25359.61307196  .00001936  00000+0  17616-2 0  9990",
        "tle_line2": "2 36701 102.7471 318.1305 0258174 224.1250 133.9027 13.71379325613157"
      },
      "geometry": {
        "type": "Point",
        "coordinates": [
          -93.31881840206036,
          74.06274444394462
        ]
      }
    },
    {
      "type": "Feature",
      "properties": {
        "norad_id": 36707,
        "name": "FENGYUN 1C DEB",
        "group": "fengyun-1c-debris",
        "lat": 77.17765483255312,
        "lon": -91.14824187255437,
        "alt_km": 792.6368200669785,
        "timestamp": "2025-12-26T08:37:54.868827+00:00",
        "meta_object_name": "FENGYUN 1C DEB",
        "meta_object_id": "1999-025EAD",
        "meta_epoch": "2025-12-21T21:25:47.185536",
        "meta_mean_motion": 14.17337167,
        "meta_eccentricity": 0.00496219,
        "meta_inclination": 98.751,
        "meta_ra_of_asc_node": 41.8648,
        "meta_arg_of_pericenter": 96.1028,
        "meta_mean_anomaly": 264.5804,
        "meta_ephemeris_type": 0,
        "meta_classification_type": "U",
        "meta_norad_cat_id": 36707,
        "meta_element_set_no": 999,
        "meta_rev_at_epoch": 64209,
        "meta_bstar": 0.00072069372,
        "meta_mean_motion_dot": 1.432e-05,
        "meta_mean_motion_ddot": 0,
        "tle_line1": "1 36707U 99025EAD 25355.89290724  .00001432  00000+0  72069-3 0  9995",
        "tle_line2": "2 36707  98.7510  41.8648 0049621  96.1028 264.5804 14.17337167642094"
      },
      "geometry": {
        "type": "Point",
        "coordinates": [
          -91.14824187255437,
          77.17765483255312
        ]
      }
    },
    {
      "type": "Feature",
      "properties": {
        "norad_id": 36710,
        "name": "FENGYUN 1C DEB",
        "group": "fengyun-1c-debris",
        "lat": 16.41545275507381,
        "lon": -120.10370411871718,
        "alt_km": 681.9165983977091,
        "timestamp": "2025-12-26T08:37:54.868837+00:00",
        "meta_object_name": "FENGYUN 1C DEB",
        "meta_object_id": "1999-025EAG",
        "meta_epoch": "2025-12-15T10:11:57.749280",
        "meta_mean_motion": 14.49882943,
        "meta_eccentricity": 0.00679739,
        "meta_inclination": 98.3812,
        "meta_ra_of_asc_node": 46.5328,
        "meta_arg_of_pericenter": 173.535,
        "meta_mean_anomaly": 186.6737,
        "meta_ephemeris_type": 0,
        "meta_classification_type": "U",
        "meta_norad_cat_id": 36710,
        "meta_element_set_no": 999,
        "meta_rev_at_epoch": 64992,
        "meta_bstar": 0.00098752348,
        "meta_mean_motion_dot": 3.884e-05,
        "meta_mean_motion_ddot": 0,
        "tle_line1": "1 36710U 99025EAG 25349.42497395  .00003884  00000+0  98752-3 0  9994",
        "tle_line2": "2 36710  98.3812  46.5328 0067973 173.5350 186.6737 14.49882943649924"
      },
      "geometry": {
        "type": "Point",
        "coordinates": [
          -120.10370411871718,
          16.41545275507381
        ]
      }
    },
    {
      "type": "Feature",
      "properties": {
        "norad_id": 36711,
        "name": "FENGYUN 1C DEB",
        "group": "fengyun-1c-debris",
        "lat": 38.159425447630404,
        "lon": 14.618976768940064,
        "alt_km": 793.9822612908765,
        "timestamp": "2025-12-26T08:37:54.868847+00:00",
        "meta_object_name": "FENGYUN 1C DEB",
        "meta_object_id": "1999-025EAH",
        "meta_epoch": "2025-12-22T19:33:17.805888",
        "meta_mean_motion": 14.42563106,
        "meta_eccentricity": 0.01001116,
        "meta_inclination": 100.8026,
        "meta_ra_of_asc_node": 18.7671,
        "meta_arg_of_pericenter": 180.6159,
        "meta_mean_anomaly": 179.4915,
        "meta_ephemeris_type": 0,
        "meta_classification_type": "U",
        "meta_norad_cat_id": 36711,
        "meta_element_set_no": 999,
        "meta_rev_at_epoch": 64456,
        "meta_bstar": 0.0021992157,
        "meta_mean_motion_dot": 7.693e-05,
        "meta_mean_motion_ddot": 0,
        "tle_line1": "1 36711U 99025EAH 25356.81478942  .00007693  00000+0  21992-2 0  9996",
        "tle_line2": "2 36711 100.8026  18.7671 0100111 180.6159 179.4915 14.42563106644564"
      },
      "geometry": {
        "type": "Point",
        "coordinates": [
          14.618976768940064,
          38.159425447630404
        ]
      }
    },
    {
      "type": "Feature",
      "properties": {
        "norad_id": 36716,
        "name": "FENGYUN 1C DEB",
        "group": "fengyun-1c-debris",
        "lat": -48.125160332422595,
        "lon": -70.28287970276963,
        "alt_km": 992.4400816298048,
        "timestamp": "2025-12-26T08:37:54.868857+00:00",
        "meta_object_name": "FENGYUN 1C DEB",
        "meta_object_id": "1999-025EAN",
        "meta_epoch": "2025-12-24T13:38:03.454656",
        "meta_mean_motion": 13.8842033,
        "meta_eccentricity": 0.01483644,
        "meta_inclination": 99.2293,
        "meta_ra_of_asc_node": 277.4949,
        "meta_arg_of_pericenter": 196.842,
        "meta_mean_anomaly": 162.7782,
        "meta_ephemeris_type": 0,
        "meta_classification_type": "U",
        "meta_norad_cat_id": 36716,
        "meta_element_set_no": 999,
        "meta_rev_at_epoch": 63095,
        "meta_bstar": 0.00021899669,
        "meta_mean_motion_dot": 2.42e-06,
        "meta_mean_motion_ddot": 0,
        "tle_line1": "1 36716U 99025EAN 25358.56809554  .00000242  00000+0  21900-3 0  9995",
        "tle_line2": "2 36716  99.2293 277.4949 0148364 196.8420 162.7782 13.88420330630955"
      },
      "geometry": {
        "type": "Point",
        "coordinates": [
          -70.28287970276963,
          -48.125160332422595
        ]
      }
    },
    {
      "type": "Feature",
      "properties": {
        "norad_id": 36724,
        "name": "FENGYUN 1C DEB",
        "group": "fengyun-1c-debris",
        "lat": -6.135187787581914,
        "lon": -147.85958310997216,
        "alt_km": 744.1144164741445,
        "timestamp": "2025-12-26T08:37:54.868867+00:00",
        "meta_object_name": "FENGYUN 1C DEB",
        "meta_object_id": "1999-025EAW",
        "meta_epoch": "2025-12-22T01:08:19.052736",
        "meta_mean_motion": 14.25358317,
        "meta_eccentricity": 0.01037225,
        "meta_inclination": 99.4676,
        "meta_ra_of_asc_node": 28.5169,
        "meta_arg_of_pericenter": 171.606,
        "meta_mean_anomaly": 218.6674,
        "meta_ephemeris_type": 0,
        "meta_classification_type": "U",
        "meta_norad_cat_id": 36724,
        "meta_element_set_no": 999,
        "meta_rev_at_epoch": 57605,
        "meta_bstar": 0.0017254927,
        "meta_mean_motion_dot": 4.254e-05,
        "meta_mean_motion_ddot": 0,
        "tle_line1": "1 36724U 99025EAW 25356.04744274  .00004254  00000+0  17255-2 0  9996",
        "tle_line2": "2 36724  99.4676  28.5169 0103722 171.6060 218.6674 14.25358317576058"
      },
      "geometry": {
        "type": "Point",
        "coordinates": [
          -147.85958310997216,
          -6.135187787581914
        ]
      }
    }
  ]
}